[{"OBJECT_NAME":"STARLINK-35693","OBJECT_ID":"2025-263F","EPOCH":"2025-11-30T04:00:03.998880","MEAN_MOTION":15.78147514,"ECCENTRICITY":0.0001805,"INCLINATION":42.9981,"RA_OF_ASC_NODE":199.8415,"ARG_OF_PERICENTER":278.779,"MEAN_ANOMALY":191.6938,"EPHEMERIS_TYPE":0,"CLASSIFICATION_TYPE":"U","NORAD_CAT_ID":66490,"ELEMENT_SET_NO":999,"REV_AT_EPOCH":361,"BSTAR":-0.0093035,"MEAN_MOTION_DOT":-0.01451219,"MEAN_MOTION_DDOT":0},{"OBJECT_NAME":"STARLINK-35663","OBJECT_ID":"2025-263G","EPOCH":"2025-11-30T04:00:03.998880","MEAN_MOTION":15.78042007,"ECCENTRICITY":0.0001677,"INCLINATION":42.9983,"RA_OF_ASC_NODE":199.8307,"ARG_OF_PERICENTER":279.2567,"MEAN_ANOMALY":195.4799,"EPHEMERIS_TYPE":0,"CLASSIFICATION_TYPE":"U","NORAD_CAT_ID":66491,"ELEMENT_SET_NO":999,"REV_AT_EPOCH":361,"BSTAR":-0.0095062,"MEAN_MOTION_DOT":-0.01472757,"MEAN_MOTION_DDOT":0},{"OBJECT_NAME":"STARLINK-35673","OBJECT_ID":"2025-263H","EPOCH":"2025-11-30T04:00:03.998880","MEAN_MOTION":15.77978605,"ECCENTRICITY":0.0001753,"INCLINATION":42.9983,"RA_OF_ASC_NODE":199.8253,"ARG_OF_PERICENTER":275.4844,"MEAN_ANOMALY":201.4086,"EPHEMERIS_TYPE":0,"CLASSIFICATION_TYPE":"U","NORAD_CAT_ID":66492,"ELEMENT_SET_NO":999,"REV_AT_EPOCH":361,"BSTAR":-0.0095963,"MEAN_MOTION_DOT":-0.01481344,"MEAN_MOTION_DDOT":0},{"OBJECT_NAME":"STARLINK-35597","OBJECT_ID":"2025-263J","EPOCH":"2025-11-30T04:00:03.998880","MEAN_MOTION":15.77870553,"ECCENTRICITY":0.000163,"INCLINATION":42.9985,"RA_OF_ASC_NODE":199.8196,"ARG_OF_PERICENTER":278.3347,"MEAN_ANOMALY":200.8552,"EPHEMERIS_TYPE":0,"CLASSIFICATION_TYPE":"U","NORAD_CAT_ID":66493,"ELEMENT_SET_NO":999,"REV_AT_EPOCH":361,"BSTAR":-0.009719,"MEAN_MOTION_DOT":-0.01491456,"MEAN_MOTION_DDOT":0},{"OBJECT_NAME":"STARLINK-35689","OBJECT_ID":"2025-263K","EPOCH":"2025-11-30T04:00:03.998880","MEAN_MOTION":15.78103258,"ECCENTRICITY":0.0001601,"INCLINATION":42.9984,"RA_OF_ASC_NODE":199.8364,"ARG_OF_PERICENTER":274.5833,"MEAN_ANOMALY":198.0136,"EPHEMERIS_TYPE":0,"CLASSIFICATION_TYPE":"U","NORAD_CAT_ID":66494,"ELEMENT_SET_NO":999,"REV_AT_EPOCH":361,"BSTAR":-0.0094377,"MEAN_MOTION_DOT":-0.01466939,"MEAN_MOTION_DDOT":0},{"OBJECT_NAME":"STARLINK-35832","OBJECT_ID":"2025-263L","EPOCH":"2025-11-30T04:00:03.998880","MEAN_MOTION":15.77722526,"ECCENTRICITY":0.0001571,"INCLINATION":42.9982,"RA_OF_ASC_NODE":199.8134,"ARG_OF_PERICENTER":279.7465,"MEAN_ANOMALY":201.8508,"EPHEMERIS_TYPE":0,"CLASSIFICATION_TYPE":"U","NORAD_CAT_ID":66495,"ELEMENT_SET_NO":999,"REV_AT_EPOCH":361,"BSTAR":-0.0098803,"MEAN_MOTION_DOT":-0.01504237,"MEAN_MOTION_DDOT":0},{"OBJECT_NAME":"STARLINK-35909","OBJECT_ID":"2025-263M","EPOCH":"2025-11-30T04:00:03.998880","MEAN_MOTION":15.77594522,"ECCENTRICITY":0.0001541,"INCLINATION":42.9984,"RA_OF_ASC_NODE":199.8076,"ARG_OF_PERICENTER":276.848,"MEAN_ANOMALY":207.0509,"EPHEMERIS_TYPE":0,"CLASSIFICATION_TYPE":"U","NORAD_CAT_ID":66496,"ELEMENT_SET_NO":999,"REV_AT_EPOCH":361,"BSTAR":-0.0099341,"MEAN_MOTION_DOT":-0.01503723,"MEAN_MOTION_DDOT":0},{"OBJECT_NAME":"STARLINK-35899","OBJECT_ID":"2025-263N","EPOCH":"2025-11-30T04:00:03.998880","MEAN_MOTION":15.77519297,"ECCENTRICITY":0.0001768,"INCLINATION":42.9986,"RA_OF_ASC_NODE":199.8004,"ARG_OF_PERICENTER":278.6525,"MEAN_ANOMALY":207.4304,"EPHEMERIS_TYPE":0,"CLASSIFICATION_TYPE":"U","NORAD_CAT_ID":66497,"ELEMENT_SET_NO":999,"REV_AT_EPOCH":361,"BSTAR":-0.010186,"MEAN_MOTION_DOT":-0.01532744,"MEAN_MOTION_DDOT":0},{"OBJECT_NAME":"STARLINK-35907","OBJECT_ID":"2025-263P","EPOCH":"2025-11-30T04:00:03.998880","MEAN_MOTION":15.7742089,"ECCENTRICITY":0.0001607,"INCLINATION":42.9987,"RA_OF_ASC_NODE":199.7962,"ARG_OF_PERICENTER":281.666,"MEAN_ANOMALY":206.6278,"EPHEMERIS_TYPE":0,"CLASSIFICATION_TYPE":"U","NORAD_CAT_ID":66498,"ELEMENT_SET_NO":999,"REV_AT_EPOCH":361,"BSTAR":-0.010381,"MEAN_MOTION_DOT":-0.01552119,"MEAN_MOTION_DDOT":0},{"OBJECT_NAME":"STARLINK-35816","OBJECT_ID":"2025-263Q","EPOCH":"2025-11-30T04:00:03.998880","MEAN_MOTION":15.77265531,"ECCENTRICITY":0.0001556,"INCLINATION":42.9984,"RA_OF_ASC_NODE":199.786,"ARG_OF_PERICENTER":280.7882,"MEAN_ANOMALY":211.7578,"EPHEMERIS_TYPE":0,"CLASSIFICATION_TYPE":"U","NORAD_CAT_ID":66499,"ELEMENT_SET_NO":999,"REV_AT_EPOCH":361,"BSTAR":-0.01049,"MEAN_MOTION_DOT":-0.01556751,"MEAN_MOTION_DDOT":0},{"OBJECT_NAME":"STARLINK-35894","OBJECT_ID":"2025-263R","EPOCH":"2025-11-30T04:00:03.998880","MEAN_MOTION":15.7739018,"ECCENTRICITY":0.000163,"INCLINATION":42.9987,"RA_OF_ASC_NODE":199.7916,"ARG_OF_PERICENTER":275.3174,"MEAN_ANOMALY":215.0464,"EPHEMERIS_TYPE":0,"CLASSIFICATION_TYPE":"U","NORAD_CAT_ID":66500,"ELEMENT_SET_NO":999,"REV_AT_EPOCH":361,"BSTAR":-0.010748,"MEAN_MOTION_DOT":-0.01629526,"MEAN_MOTION_DDOT":0},{"OBJECT_NAME":"STARLINK-35897","OBJECT_ID":"2025-263S","EPOCH":"2025-11-30T04:00:03.998880","MEAN_MOTION":15.77172483,"ECCENTRICITY":0.0001669,"INCLINATION":42.9986,"RA_OF_ASC_NODE":199.7801,"ARG_OF_PERICENTER":282.6114,"MEAN_ANOMALY":212.1067,"EPHEMERIS_TYPE":0,"CLASSIFICATION_TYPE":"U","NORAD_CAT_ID":66501,"ELEMENT_SET_NO":999,"REV_AT_EPOCH":361,"BSTAR":-0.010919,"MEAN_MOTION_DOT":-0.01638267,"MEAN_MOTION_DDOT":0},{"OBJECT_NAME":"STARLINK-35922","OBJECT_ID":"2025-263T","EPOCH":"2025-11-30T04:00:03.998880","MEAN_MOTION":15.76785758,"ECCENTRICITY":0.0001851,"INCLINATION":42.9986,"RA_OF_ASC_NODE":199.7639,"ARG_OF_PERICENTER":278.8025,"MEAN_ANOMALY":222.45,"EPHEMERIS_TYPE":0,"CLASSIFICATION_TYPE":"U","NORAD_CAT_ID":66502,"ELEMENT_SET_NO":999,"REV_AT_EPOCH":361,"BSTAR":-0.011424,"MEAN_MOTION_DOT":-0.01679282,"MEAN_MOTION_DDOT":0},{"OBJECT_NAME":"STARLINK-35917","OBJECT_ID":"2025-263U","EPOCH":"2025-11-29T06:00:02.000160","MEAN_MOTION":15.79998552,"ECCENTRICITY":0.00019993,"INCLINATION":42.998,"RA_OF_ASC_NODE":205.3387,"ARG_OF_PERICENTER":271.3385,"MEAN_ANOMALY":59.4298,"EPHEMERIS_TYPE":0,"CLASSIFICATION_TYPE":"U","NORAD_CAT_ID":66503,"ELEMENT_SET_NO":999,"REV_AT_EPOCH":346,"BSTAR":-0.010021275,"MEAN_MOTION_DOT":-0.01702697,"MEAN_MOTION_DDOT":0},{"OBJECT_NAME":"STARLINK-35916","OBJECT_ID":"2025-263V","EPOCH":"2025-11-30T04:00:03.998880","MEAN_MOTION":15.70534801,"ECCENTRICITY":0.0001524,"INCLINATION":42.9996,"RA_OF_ASC_NODE":199.8814,"ARG_OF_PERICENTER":275.6663,"MEAN_ANOMALY":177.8154,"EPHEMERIS_TYPE":0,"CLASSIFICATION_TYPE":"U","NORAD_CAT_ID":66504,"ELEMENT_SET_NO":999,"REV_AT_EPOCH":361,"BSTAR":-0.022332,"MEAN_MOTION_DOT":-0.02476893,"MEAN_MOTION_DDOT":0},{"OBJECT_NAME":"STARLINK-34766","OBJECT_ID":"2025-263W","EPOCH":"2025-11-30T04:00:03.998880","MEAN_MOTION":15.77003246,"ECCENTRICITY":0.0001654,"INCLINATION":42.9987,"RA_OF_ASC_NODE":199.7742,"ARG_OF_PERICENTER":280.7134,"MEAN_ANOMALY":216.3043,"EPHEMERIS_TYPE":0,"CLASSIFICATION_TYPE":"U","NORAD_CAT_ID":66505,"ELEMENT_SET_NO":999,"REV_AT_EPOCH":361,"BSTAR":-0.011317,"MEAN_MOTION_DOT":-0.01679663,"MEAN_MOTION_DDOT":0},{"OBJECT_NAME":"STARLINK-34765","OBJECT_ID":"2025-263X","EPOCH":"2025-11-30T04:00:03.998880","MEAN_MOTION":15.76934174,"ECCENTRICITY":0.0001619,"INCLINATION":42.9989,"RA_OF_ASC_NODE":199.7696,"ARG_OF_PERICENTER":281.4819,"MEAN_ANOMALY":217.5956,"EPHEMERIS_TYPE":0,"CLASSIFICATION_TYPE":"U","NORAD_CAT_ID":66506,"ELEMENT_SET_NO":999,"REV_AT_EPOCH":361,"BSTAR":-0.011468,"MEAN_MOTION_DOT":-0.01694745,"MEAN_MOTION_DDOT":0},{"OBJECT_NAME":"STARLINK-34767","OBJECT_ID":"2025-263Y","EPOCH":"2025-11-30T04:00:03.998880","MEAN_MOTION":15.765845,"ECCENTRICITY":0.0001398,"INCLINATION":42.9988,"RA_OF_ASC_NODE":199.7581,"ARG_OF_PERICENTER":277.6935,"MEAN_ANOMALY":225.7829,"EPHEMERIS_TYPE":0,"CLASSIFICATION_TYPE":"U","NORAD_CAT_ID":66507,"ELEMENT_SET_NO":999,"REV_AT_EPOCH":361,"BSTAR":-0.011373,"MEAN_MOTION_DOT":-0.01658979,"MEAN_MOTION_DDOT":0},{"OBJECT_NAME":"STARLINK-35608","OBJECT_ID":"2025-263Z","EPOCH":"2025-11-30T04:00:03.998880","MEAN_MOTION":15.76113344,"ECCENTRICITY":0.0001746,"INCLINATION":42.9988,"RA_OF_ASC_NODE":199.7427,"ARG_OF_PERICENTER":276.9584,"MEAN_ANOMALY":232.7438,"EPHEMERIS_TYPE":0,"CLASSIFICATION_TYPE":"U","NORAD_CAT_ID":66508,"ELEMENT_SET_NO":999,"REV_AT_EPOCH":361,"BSTAR":-0.0090333,"MEAN_MOTION_DOT":-0.01302895,"MEAN_MOTION_DDOT":0},{"OBJECT_NAME":"STARLINK-35598","OBJECT_ID":"2025-263AA","EPOCH":"2025-11-30T04:00:03.998880","MEAN_MOTION":15.75192607,"ECCENTRICITY":0.0001912,"INCLINATION":42.9988,"RA_OF_ASC_NODE":199.7205,"ARG_OF_PERICENTER":279.3901,"MEAN_ANOMALY":238.5802,"EPHEMERIS_TYPE":0,"CLASSIFICATION_TYPE":"U","NORAD_CAT_ID":66509,"ELEMENT_SET_NO":999,"REV_AT_EPOCH":361,"BSTAR":-0.001294,"MEAN_MOTION_DOT":-0.00196037,"MEAN_MOTION_DDOT":0},{"OBJECT_NAME":"STARLINK-35600","OBJECT_ID":"2025-263AB","EPOCH":"2025-11-30T04:00:03.998880","MEAN_MOTION":15.75805851,"ECCENTRICITY":0.0001961,"INCLINATION":42.9989,"RA_OF_ASC_NODE":199.7364,"ARG_OF_PERICENTER":280.5769,"MEAN_ANOMALY":231.2799,"EPHEMERIS_TYPE":0,"CLASSIFICATION_TYPE":"U","NORAD_CAT_ID":66510,"ELEMENT_SET_NO":999,"REV_AT_EPOCH":361,"BSTAR":-0.0069708,"MEAN_MOTION_DOT":-0.01002684,"MEAN_MOTION_DDOT":0},{"OBJECT_NAME":"STARLINK-35444","OBJECT_ID":"2025-263AC","EPOCH":"2025-11-30T04:00:03.998880","MEAN_MOTION":15.75383202,"ECCENTRICITY":0.0001724,"INCLINATION":42.9988,"RA_OF_ASC_NODE":199.7257,"ARG_OF_PERICENTER":261.3463,"MEAN_ANOMALY":254.611,"EPHEMERIS_TYPE":0,"CLASSIFICATION_TYPE":"U","NORAD_CAT_ID":66511,"ELEMENT_SET_NO":999,"REV_AT_EPOCH":361,"BSTAR":-0.0036549,"MEAN_MOTION_DOT":-0.0053577,"MEAN_MOTION_DDOT":0},{"OBJECT_NAME":"STARLINK-35366","OBJECT_ID":"2025-263AD","EPOCH":"2025-11-30T04:00:03.998880","MEAN_MOTION":15.75086305,"ECCENTRICITY":0.0001643,"INCLINATION":42.9988,"RA_OF_ASC_NODE":199.7153,"ARG_OF_PERICENTER":267.4002,"MEAN_ANOMALY":252.5496,"EPHEMERIS_TYPE":0,"CLASSIFICATION_TYPE":"U","NORAD_CAT_ID":66512,"ELEMENT_SET_NO":999,"REV_AT_EPOCH":361,"BSTAR":-0.00031339,"MEAN_MOTION_DOT":-0.00048441,"MEAN_MOTION_DDOT":0}]
